[Satellite]
VERSION=1.1
NAME=DMC3-FM2
NICKNAME=DMC3-FM2
TLE1=1 40716U 15032B   17186.25665340  .00000005  00000-0  85995-5 0  9999
TLE2=2 40716  98.0403  81.6845 0014742  88.2426 272.0474 14.73684552106866
